{
    "links": {
        "self": "http://www.neowsapp.com/rest/v1/neo/3441025?api_key=iIulBulltgU6a56xZRHN4H3l9WmuAYTsLGpBGhQ2"
    },
    "id": "3441025",
    "neo_reference_id": "3441025",
    "name": "(2008 XH)",
    "designation": "2008 XH",
    "nasa_jpl_url": "http://ssd.jpl.nasa.gov/sbdb.cgi?sstr=3441025",
    "absolute_magnitude_h": 22.7,
    "estimated_diameter": {
        "kilometers": {
            "estimated_diameter_min": 0.0766575574,
            "estimated_diameter_max": 0.1714115092
        },
        "meters": {
            "estimated_diameter_min": 76.6575573531,
            "estimated_diameter_max": 171.4115092306
        },
        "miles": {
            "estimated_diameter_min": 0.0476327831,
            "estimated_diameter_max": 0.1065101409
        },
        "feet": {
            "estimated_diameter_min": 251.5011804664,
            "estimated_diameter_max": 562.3737359442
        }
    },
    "is_potentially_hazardous_asteroid": false,
    "close_approach_data": [
        {
            "close_approach_date": "2008-11-13",
            "close_approach_date_full": "2008-Nov-13 09:42",
            "epoch_date_close_approach": 1226569320000,
            "relative_velocity": {
                "kilometers_per_second": "13.6856980193",
                "kilometers_per_hour": "49268.5128695012",
                "miles_per_hour": "30613.5378993854"
            },
            "miss_distance": {
                "astronomical": "0.0910199532",
                "lunar": "35.4067617948",
                "kilometers": "13616391.126219684",
                "miles": "8460833.1117882792"
            },
            "orbiting_body": "Earth"
        }
    ],
    "orbital_data": {
        "orbit_id": "6",
        "orbit_determination_date": "2017-04-06 09:02:00",
        "first_observation_date": "2008-12-01",
        "last_observation_date": "2008-12-02",
        "data_arc_in_days": 1,
        "observations_used": 12,
        "orbit_uncertainty": "9",
        "minimum_orbit_intersection": ".0158133",
        "jupiter_tisserand_invariant": "4.730",
        "epoch_osculation": "2454802.5",
        "eccentricity": ".4472558760205099",
        "semi_major_axis": "1.35079903029193",
        "inclination": "15.47974911899727",
        "ascending_node_longitude": "65.64361687194112",
        "orbital_period": "573.4354492970459",
        "perihelion_distance": ".7466462266710576",
        "perihelion_argument": "265.6208271748122",
        "aphelion_distance": "1.954951833912802",
        "perihelion_time": "2454726.635391131669",
        "mean_anomaly": "47.62743431031176",
        "mean_motion": ".6277951606258581",
        "equinox": "J2000",
        "orbit_class": {
            "orbit_class_type": "APO",
            "orbit_class_description": "Near-Earth asteroid orbits which cross the Earth’s orbit similar to that of 1862 Apollo",
            "orbit_class_range": "a (semi-major axis) > 1.0 AU; q (perihelion) < 1.017 AU"
        }
    },
    "is_sentry_object": false
}